{
  "type": "FeatureCollection",
  "features": [
    {
      "type": "Feature",
      "properties": {
        "norad_id": 30621,
        "name": "FENGYUN 1C DEB",
        "group": "fengyun-1c-debris",
        "lat": -13.619031287338872,
        "lon": -57.21277045034007,
        "alt_km": 850.2484475445353,
        "timestamp": "2025-12-23T16:57:12.630124+00:00",
        "meta_object_name": "FENGYUN 1C DEB",
        "meta_object_id": "1999-025ANC",
        "meta_epoch": "2025-12-22T07:33:01.039104",
        "meta_mean_motion": 14.03884663,
        "meta_eccentricity": 0.01366765,
        "meta_inclination": 98.698,
        "meta_ra_of_asc_node": 299.3294,
        "meta_arg_of_pericenter": 279.9015,
        "meta_mean_anomaly": 234.7066,
        "meta_ephemeris_type": 0,
        "meta_classification_type": "U",
        "meta_norad_cat_id": 30621,
        "meta_element_set_no": 999,
        "meta_rev_at_epoch": 95724,
        "meta_bstar": 0.0020240679,
        "meta_mean_motion_dot": 3.427e-05,
        "meta_mean_motion_ddot": 0,
        "tle_line1": "1 30621U 99025ANC 25356.31459536  .00003427  00000+0  20241-2 0  9990",
        "tle_line2": "2 30621  98.6980 299.3294 0136676 279.9015 234.7066 14.03884663957242"
      },
      "geometry": {
        "type": "Point",
        "coordinates": [
          -57.21277045034007,
          -13.619031287338872
        ]
      }
    },
    {
      "type": "Feature",
      "properties": {
        "norad_id": 30622,
        "name": "FENGYUN 1C DEB",
        "group": "fengyun-1c-debris",
        "lat": -54.60201270719499,
        "lon": 176.2509988249267,
        "alt_km": 810.430749856132,
        "timestamp": "2025-12-23T16:57:12.630134+00:00",
        "meta_object_name": "FENGYUN 1C DEB",
        "meta_object_id": "1999-025AND",
        "meta_epoch": "2025-12-20T21:18:30.354048",
        "meta_mean_motion": 14.31337635,
        "meta_eccentricity": 0.0072413,
        "meta_inclination": 101.0011,
        "meta_ra_of_asc_node": 8.5769,
        "meta_arg_of_pericenter": 352.4958,
        "meta_mean_anomaly": 128.3988,
        "meta_ephemeris_type": 0,
        "meta_classification_type": "U",
        "meta_norad_cat_id": 30622,
        "meta_element_set_no": 999,
        "meta_rev_at_epoch": 68914,
        "meta_bstar": 0.0021293,
        "meta_mean_motion_dot": 5.745e-05,
        "meta_mean_motion_ddot": 0,
        "tle_line1": "1 30622U 99025AND 25354.88785132  .00005745  00000+0  21293-2 0  9998",
        "tle_line2": "2 30622 101.0011   8.5769 0072413 352.4958 128.3988 14.31337635689140"
      },
      "geometry": {
        "type": "Point",
        "coordinates": [
          176.2509988249267,
          -54.60201270719499
        ]
      }
    },
    {
      "type": "Feature",
      "properties": {
        "norad_id": 30623,
        "name": "FENGYUN 1C DEB",
        "group": "fengyun-1c-debris",
        "lat": 10.611464739551707,
        "lon": 173.1988180395873,
        "alt_km": 1035.3559799626346,
        "timestamp": "2025-12-23T16:57:12.630146+00:00",
        "meta_object_name": "FENGYUN 1C DEB",
        "meta_object_id": "1999-025ANE",
        "meta_epoch": "2025-12-21T18:01:25.554144",
        "meta_mean_motion": 13.29345474,
        "meta_eccentricity": 0.04037504,
        "meta_inclination": 98.823,
        "meta_ra_of_asc_node": 173.1896,
        "meta_arg_of_pericenter": 85.5664,
        "meta_mean_anomaly": 296.5298,
        "meta_ephemeris_type": 0,
        "meta_classification_type": "U",
        "meta_norad_cat_id": 30623,
        "meta_element_set_no": 999,
        "meta_rev_at_epoch": 91336,
        "meta_bstar": 0.00046323769,
        "meta_mean_motion_dot": 3.03e-06,
        "meta_mean_motion_ddot": 0,
        "tle_line1": "1 30623U 99025ANE 25355.75099021  .00000303  00000+0  46324-3 0  9999",
        "tle_line2": "2 30623  98.8230 173.1896 0403750  85.5664 296.5298 13.29345474913369"
      },
      "geometry": {
        "type": "Point",
        "coordinates": [
          173.1988180395873,
          10.611464739551707
        ]
      }
    },
    {
      "type": "Feature",
      "properties": {
        "norad_id": 30624,
        "name": "FENGYUN 1C DEB",
        "group": "fengyun-1c-debris",
        "lat": -49.25423519091687,
        "lon": 91.00007304697137,
        "alt_km": 686.4687335260996,
        "timestamp": "2025-12-23T16:57:12.630157+00:00",
        "meta_object_name": "FENGYUN 1C DEB",
        "meta_object_id": "1999-025ANF",
        "meta_epoch": "2025-12-21T04:26:09.447648",
        "meta_mean_motion": 14.62636214,
        "meta_eccentricity": 0.00232881,
        "meta_inclination": 98.8874,
        "meta_ra_of_asc_node": 77.8232,
        "meta_arg_of_pericenter": 244.6231,
        "meta_mean_anomaly": 115.2557,
        "meta_ephemeris_type": 0,
        "meta_classification_type": "U",
        "meta_norad_cat_id": 30624,
        "meta_element_set_no": 999,
        "meta_rev_at_epoch": 97619,
        "meta_bstar": 0.0029618402,
        "meta_mean_motion_dot": 0.00015094,
        "meta_mean_motion_ddot": 0,
        "tle_line1": "1 30624U 99025ANF 25355.18483157  .00015094  00000+0  29618-2 0  9993",
        "tle_line2": "2 30624  98.8874  77.8232 0023288 244.6231 115.2557 14.62636214976198"
      },
      "geometry": {
        "type": "Point",
        "coordinates": [
          91.00007304697137,
          -49.25423519091687
        ]
      }
    },
    {
      "type": "Feature",
      "properties": {
        "norad_id": 30625,
        "name": "FENGYUN 1C DEB",
        "group": "fengyun-1c-debris",
        "lat": 19.465399626667132,
        "lon": 137.34209048006454,
        "alt_km": 764.4037789770191,
        "timestamp": "2025-12-23T16:57:12.630167+00:00",
        "meta_object_name": "FENGYUN 1C DEB",
        "meta_object_id": "1999-025ANG",
        "meta_epoch": "2025-12-22T20:13:15.565728",
        "meta_mean_motion": 14.41747552,
        "meta_eccentricity": 0.00482641,
        "meta_inclination": 98.9265,
        "meta_ra_of_asc_node": 313.2551,
        "meta_arg_of_pericenter": 272.7745,
        "meta_mean_anomaly": 86.7919,
        "meta_ephemeris_type": 0,
        "meta_classification_type": "U",
        "meta_norad_cat_id": 30625,
        "meta_element_set_no": 999,
        "meta_rev_at_epoch": 96838,
        "meta_bstar": 0.0039136911,
        "meta_mean_motion_dot": 0.00012927,
        "meta_mean_motion_ddot": 0,
        "tle_line1": "1 30625U 99025ANG 25356.84254127  .00012927  00000+0  39137-2 0  9990",
        "tle_line2": "2 30625  98.9265 313.2551 0048264 272.7745  86.7919 14.41747552968389"
      },
      "geometry": {
        "type": "Point",
        "coordinates": [
          137.34209048006454,
          19.465399626667132
        ]
      }
    },
    {
      "type": "Feature",
      "properties": {
        "norad_id": 30628,
        "name": "FENGYUN 1C DEB",
        "group": "fengyun-1c-debris",
        "lat": -14.06459510542896,
        "lon": 92.63390143629177,
        "alt_km": 653.0063238554649,
        "timestamp": "2025-12-23T16:57:12.630180+00:00",
        "meta_object_name": "FENGYUN 1C DEB",
        "meta_object_id": "1999-025ANK",
        "meta_epoch": "2025-12-22T07:23:05.577216",
        "meta_mean_motion": 14.69307411,
        "meta_eccentricity": 0.00218408,
        "meta_inclination": 99.341,
        "meta_ra_of_asc_node": 273.3997,
        "meta_arg_of_pericenter": 215.3118,
        "meta_mean_anomaly": 144.6638,
        "meta_ephemeris_type": 0,
        "meta_classification_type": "U",
        "meta_norad_cat_id": 30628,
        "meta_element_set_no": 999,
        "meta_rev_at_epoch": 98611,
        "meta_bstar": 0.0028706727,
        "meta_mean_motion_dot": 0.00016985,
        "meta_mean_motion_ddot": 0,
        "tle_line1": "1 30628U 99025ANK 25356.30770344  .00016985  00000+0  28707-2 0  9997",
        "tle_line2": "2 30628  99.3410 273.3997 0021840 215.3118 144.6638 14.69307411986116"
      },
      "geometry": {
        "type": "Point",
        "coordinates": [
          92.63390143629177,
          -14.06459510542896
        ]
      }
    },
    {
      "type": "Feature",
      "properties": {
        "norad_id": 30629,
        "name": "FENGYUN 1C DEB",
        "group": "fengyun-1c-debris",
        "lat": -28.094843850574254,
        "lon": 99.8857223738064,
        "alt_km": 704.3677980343255,
        "timestamp": "2025-12-23T16:57:12.630191+00:00",
        "meta_object_name": "FENGYUN 1C DEB",
        "meta_object_id": "1999-025ANL",
        "meta_epoch": "2025-12-23T05:49:08.505120",
        "meta_mean_motion": 14.59834813,
        "meta_eccentricity": 0.00075134,
        "meta_inclination": 99.2513,
        "meta_ra_of_asc_node": 94.3771,
        "meta_arg_of_pericenter": 175.1737,
        "meta_mean_anomaly": 239.6203,
        "meta_ephemeris_type": 0,
        "meta_classification_type": "U",
        "meta_norad_cat_id": 30629,
        "meta_element_set_no": 999,
        "meta_rev_at_epoch": 98043,
        "meta_bstar": 0.0031294908,
        "meta_mean_motion_dot": 0.00014944,
        "meta_mean_motion_ddot": 0,
        "tle_line1": "1 30629U 99025ANL 25357.24245955  .00014944  00000+0  31295-2 0  9996",
        "tle_line2": "2 30629  99.2513  94.3771 0007513 175.1737 239.6203 14.59834813980434"
      },
      "geometry": {
        "type": "Point",
        "coordinates": [
          99.8857223738064,
          -28.094843850574254
        ]
      }
    }
  ]
}